[{"OBJECT_NAME":"FLOCK 4G-25","OBJECT_ID":"2025-009AP","EPOCH":"2026-03-09T17:53:50.680608","MEAN_MOTION":15.27424196,"ECCENTRICITY":8.276e-5,"INCLINATION":97.4049,"RA_OF_ASC_NODE":151.4141,"ARG_OF_PERICENTER":316.3151,"MEAN_ANOMALY":43.8023,"EPHEMERIS_TYPE":0,"CLASSIFICATION_TYPE":"U","NORAD_CAT_ID":62646,"ELEMENT_SET_NO":999,"REV_AT_EPOCH":6373,"BSTAR":0.00038902475,"MEAN_MOTION_DOT":0.00010373,"MEAN_MOTION_DDOT":0},{"OBJECT_NAME":"STARLINK-35915","OBJECT_ID":"2025-265F","EPOCH":"2026-03-09T22:58:05.240640","MEAN_MOTION":15.27599277,"ECCENTRICITY":0.00020264,"INCLINATION":43.0036,"RA_OF_ASC_NODE":276.4843,"ARG_OF_PERICENTER":255.0616,"MEAN_ANOMALY":105.0012,"EPHEMERIS_TYPE":0,"CLASSIFICATION_TYPE":"U","NORAD_CAT_ID":66521,"ELEMENT_SET_NO":999,"REV_AT_EPOCH":1715,"BSTAR":0.0010937864,"MEAN_MOTION_DOT":0.00029977,"MEAN_MOTION_DDOT":0}]
